CCSDS_OMM_VERS = 2.0
CREATION_DATE  = 
ORIGINATOR     = 

OBJECT_NAME    = SL-3 R/B
OBJECT_ID      = 1988-032B
CENTER_NAME    = EARTH
REF_FRAME      = TEME
TIME_SYSTEM    = UTC
MEAN_ELEMENT_THEORY = SGP/SGP4

EPOCH          = 2026-03-11T21:43:20.952768
MEAN_MOTION    = 15.19938075
ECCENTRICITY   = .0024553
INCLINATION    = 97.5195
RA_OF_ASC_NODE = 54.1484
ARG_OF_PERICENTER = 223.3290
MEAN_ANOMALY   = 136.6015

EPHEMERIS_TYPE = 0
CLASSIFICATION_TYPE = U
NORAD_CAT_ID   = 19046
ELEMENT_SET_NO = 999
REV_AT_EPOCH   = 5244
BSTAR          = .27127E-3
MEAN_MOTION_DOT = .5807E-4
MEAN_MOTION_DDOT = 0

CCSDS_OMM_VERS = 2.0
CREATION_DATE  = 
ORIGINATOR     = 

OBJECT_NAME    = SL-16 R/B
OBJECT_ID      = 1988-039B
CENTER_NAME    = EARTH
REF_FRAME      = TEME
TIME_SYSTEM    = UTC
MEAN_ELEMENT_THEORY = SGP/SGP4

EPOCH          = 2026-03-11T09:20:57.996096
MEAN_MOTION    = 14.19615620
ECCENTRICITY   = .0022884
INCLINATION    = 71.0136
RA_OF_ASC_NODE = 64.9528
ARG_OF_PERICENTER = 331.9159
MEAN_ANOMALY   = 28.0730

EPHEMERIS_TYPE = 0
CLASSIFICATION_TYPE = U
NORAD_CAT_ID   = 19120
ELEMENT_SET_NO = 999
REV_AT_EPOCH   = 95862
BSTAR          = .44683E-4
MEAN_MOTION_DOT = .46E-6
MEAN_MOTION_DDOT = 0

CCSDS_OMM_VERS = 2.0
CREATION_DATE  = 
ORIGINATOR     = 

OBJECT_NAME    = COSMOS 1953
OBJECT_ID      = 1988-050A
CENTER_NAME    = EARTH
REF_FRAME      = TEME
TIME_SYSTEM    = UTC
MEAN_ELEMENT_THEORY = SGP/SGP4

EPOCH          = 2026-03-11T17:17:28.807584
MEAN_MOTION    = 15.28565914
ECCENTRICITY   = .0012555
INCLINATION    = 82.5103
RA_OF_ASC_NODE = 156.2051
ARG_OF_PERICENTER = 116.2836
MEAN_ANOMALY   = 243.9695

EPHEMERIS_TYPE = 0
CLASSIFICATION_TYPE = U
NORAD_CAT_ID   = 19210
ELEMENT_SET_NO = 999
REV_AT_EPOCH   = 3809
BSTAR          = .32719E-3
MEAN_MOTION_DOT = .9145E-4
MEAN_MOTION_DDOT = 0

CCSDS_OMM_VERS = 2.0
CREATION_DATE  = 
ORIGINATOR     = 

OBJECT_NAME    = SL-8 R/B
OBJECT_ID      = 1988-053B
CENTER_NAME    = EARTH
REF_FRAME      = TEME
TIME_SYSTEM    = UTC
MEAN_ELEMENT_THEORY = SGP/SGP4

EPOCH          = 2026-03-11T13:01:44.607360
MEAN_MOTION    = 14.38916992
ECCENTRICITY   = .0021452
INCLINATION    = 74.0458
RA_OF_ASC_NODE = 109.0502
ARG_OF_PERICENTER = 288.0700
MEAN_ANOMALY   = 180.7333

EPHEMERIS_TYPE = 0
CLASSIFICATION_TYPE = U
NORAD_CAT_ID   = 19257
ELEMENT_SET_NO = 999
REV_AT_EPOCH   = 97686
BSTAR          = .10069E-3
MEAN_MOTION_DOT = .284E-5
MEAN_MOTION_DDOT = 0

CCSDS_OMM_VERS = 2.0
CREATION_DATE  = 
ORIGINATOR     = 

OBJECT_NAME    = COSMOS 1975
OBJECT_ID      = 1988-093A
CENTER_NAME    = EARTH
REF_FRAME      = TEME
TIME_SYSTEM    = UTC
MEAN_ELEMENT_THEORY = SGP/SGP4

EPOCH          = 2026-03-11T13:24:01.742400
MEAN_MOTION    = 15.28099507
ECCENTRICITY   = .0012329
INCLINATION    = 82.5183
RA_OF_ASC_NODE = 115.8093
ARG_OF_PERICENTER = 157.1148
MEAN_ANOMALY   = 203.0644

EPHEMERIS_TYPE = 0
CLASSIFICATION_TYPE = U
NORAD_CAT_ID   = 19573
ELEMENT_SET_NO = 999
REV_AT_EPOCH   = 1969
BSTAR          = .25983E-3
MEAN_MOTION_DOT = .7165E-4
MEAN_MOTION_DDOT = 0

CCSDS_OMM_VERS = 2.0
CREATION_DATE  = 
ORIGINATOR     = 

OBJECT_NAME    = SL-14 R/B
OBJECT_ID      = 1988-093B
CENTER_NAME    = EARTH
REF_FRAME      = TEME
TIME_SYSTEM    = UTC
MEAN_ELEMENT_THEORY = SGP/SGP4

EPOCH          = 2026-03-11T21:13:41.873952
MEAN_MOTION    = 14.85659398
ECCENTRICITY   = .0021617
INCLINATION    = 82.5308
RA_OF_ASC_NODE = 39.9831
ARG_OF_PERICENTER = 34.5935
MEAN_ANOMALY   = 24.6492

EPHEMERIS_TYPE = 0
CLASSIFICATION_TYPE = U
NORAD_CAT_ID   = 19574
ELEMENT_SET_NO = 999
REV_AT_EPOCH   = 134
BSTAR          = .75148E-4
MEAN_MOTION_DOT = .678E-5
MEAN_MOTION_DDOT = 0

CCSDS_OMM_VERS = 2.0
CREATION_DATE  = 
ORIGINATOR     = 

OBJECT_NAME    = SL-16 R/B
OBJECT_ID      = 1988-102B
CENTER_NAME    = EARTH
REF_FRAME      = TEME
TIME_SYSTEM    = UTC
MEAN_ELEMENT_THEORY = SGP/SGP4

EPOCH          = 2026-03-11T14:24:14.469408
MEAN_MOTION    = 14.16153368
ECCENTRICITY   = .0014095
INCLINATION    = 71.0000
RA_OF_ASC_NODE = 147.4780
ARG_OF_PERICENTER = 358.6762
MEAN_ANOMALY   = 1.4322

EPHEMERIS_TYPE = 0
CLASSIFICATION_TYPE = U
NORAD_CAT_ID   = 19650
ELEMENT_SET_NO = 999
REV_AT_EPOCH   = 92716
BSTAR          = .17578E-3
MEAN_MOTION_DOT = .3E-5
MEAN_MOTION_DDOT = 0

CCSDS_OMM_VERS = 2.0
CREATION_DATE  = 
ORIGINATOR     = 

OBJECT_NAME    = INTERCOSMOS 24
OBJECT_ID      = 1989-080A
CENTER_NAME    = EARTH
REF_FRAME      = TEME
TIME_SYSTEM    = UTC
MEAN_ELEMENT_THEORY = SGP/SGP4

EPOCH          = 2026-03-11T13:11:59.143776
MEAN_MOTION    = 12.59561035
ECCENTRICITY   = .1186686
INCLINATION    = 82.6023
RA_OF_ASC_NODE = 103.1927
ARG_OF_PERICENTER = 288.4983
MEAN_ANOMALY   = 59.0908

EPHEMERIS_TYPE = 0
CLASSIFICATION_TYPE = U
NORAD_CAT_ID   = 20261
ELEMENT_SET_NO = 999
REV_AT_EPOCH   = 66703
BSTAR          = .24845E-3
MEAN_MOTION_DOT = .834E-5
MEAN_MOTION_DDOT = 0

CCSDS_OMM_VERS = 2.0
CREATION_DATE  = 
ORIGINATOR     = 

OBJECT_NAME    = SL-14 R/B
OBJECT_ID      = 1989-080C
CENTER_NAME    = EARTH
REF_FRAME      = TEME
TIME_SYSTEM    = UTC
MEAN_ELEMENT_THEORY = SGP/SGP4

EPOCH          = 2026-03-11T19:06:47.870496
MEAN_MOTION    = 12.50496627
ECCENTRICITY   = .1230635
INCLINATION    = 82.5975
RA_OF_ASC_NODE = 171.8343
ARG_OF_PERICENTER = 179.9360
MEAN_ANOMALY   = 180.2135

EPHEMERIS_TYPE = 0
CLASSIFICATION_TYPE = U
NORAD_CAT_ID   = 20262
ELEMENT_SET_NO = 999
REV_AT_EPOCH   = 66041
BSTAR          = .18976E-3
MEAN_MOTION_DOT = .647E-5
MEAN_MOTION_DDOT = 0

CCSDS_OMM_VERS = 2.0
CREATION_DATE  = 
ORIGINATOR     = 

OBJECT_NAME    = DELTA 1 R/B
OBJECT_ID      = 1989-089B
CENTER_NAME    = EARTH
REF_FRAME      = TEME
TIME_SYSTEM    = UTC
MEAN_ELEMENT_THEORY = SGP/SGP4

EPOCH          = 2026-03-11T13:15:06.985152
MEAN_MOTION    = 14.50664655
ECCENTRICITY   = .0070547
INCLINATION    = 97.0705
RA_OF_ASC_NODE = 277.6947
ARG_OF_PERICENTER = 116.1978
MEAN_ANOMALY   = 244.6496

EPHEMERIS_TYPE = 0
CLASSIFICATION_TYPE = U
NORAD_CAT_ID   = 20323
ELEMENT_SET_NO = 999
REV_AT_EPOCH   = 89600
BSTAR          = .10635E-3
MEAN_MOTION_DOT = .396E-5
MEAN_MOTION_DDOT = 0

CCSDS_OMM_VERS = 2.0
CREATION_DATE  = 
ORIGINATOR     = 

OBJECT_NAME    = ARIANE 40 R/B
OBJECT_ID      = 1990-005H
CENTER_NAME    = EARTH
REF_FRAME      = TEME
TIME_SYSTEM    = UTC
MEAN_ELEMENT_THEORY = SGP/SGP4

EPOCH          = 2026-03-11T18:13:21.874944
MEAN_MOTION    = 14.39871979
ECCENTRICITY   = .0009979
INCLINATION    = 98.3079
RA_OF_ASC_NODE = 131.3590
ARG_OF_PERICENTER = 192.2463
MEAN_ANOMALY   = 167.8485

EPHEMERIS_TYPE = 0
CLASSIFICATION_TYPE = U
NORAD_CAT_ID   = 20443
ELEMENT_SET_NO = 999
REV_AT_EPOCH   = 89310
BSTAR          = .11038E-3
MEAN_MOTION_DOT = .305E-5
MEAN_MOTION_DDOT = 0

CCSDS_OMM_VERS = 2.0
CREATION_DATE  = 
ORIGINATOR     = 

OBJECT_NAME    = DELTA 2 R/B(1)
OBJECT_ID      = 1990-008B
CENTER_NAME    = EARTH
REF_FRAME      = TEME
TIME_SYSTEM    = UTC
MEAN_ELEMENT_THEORY = SGP/SGP4

EPOCH          = 2026-03-11T14:52:54.543072
MEAN_MOTION    = 15.56257275
ECCENTRICITY   = .0084813
INCLINATION    = 35.6032
RA_OF_ASC_NODE = 162.1818
ARG_OF_PERICENTER = 276.5076
MEAN_ANOMALY   = 82.6010

EPHEMERIS_TYPE = 0
CLASSIFICATION_TYPE = U
NORAD_CAT_ID   = 20453
ELEMENT_SET_NO = 999
REV_AT_EPOCH   = 92643
BSTAR          = .80101E-3
MEAN_MOTION_DOT = .6914E-3
MEAN_MOTION_DDOT = 0

